[{"OBJECT_NAME":"TIANMU-1 10","OBJECT_ID":"2023-101D","EPOCH":"2026-03-09T23:06:46.939392","MEAN_MOTION":15.2921896,"ECCENTRICITY":0.00069292,"INCLINATION":97.2749,"RA_OF_ASC_NODE":122.1027,"ARG_OF_PERICENTER":133.6162,"MEAN_ANOMALY":226.5654,"EPHEMERIS_TYPE":0,"CLASSIFICATION_TYPE":"U","NORAD_CAT_ID":57402,"ELEMENT_SET_NO":999,"REV_AT_EPOCH":14647,"BSTAR":0.00032238884,"MEAN_MOTION_DOT":9.075e-5,"MEAN_MOTION_DDOT":0},{"OBJECT_NAME":"STARLINK-31679","OBJECT_ID":"2024-073J","EPOCH":"2026-03-09T01:46:27.278976","MEAN_MOTION":15.27579085,"ECCENTRICITY":0.0001461,"INCLINATION":43.0014,"RA_OF_ASC_NODE":310.9222,"ARG_OF_PERICENTER":270.1269,"MEAN_ANOMALY":89.9415,"EPHEMERIS_TYPE":0,"CLASSIFICATION_TYPE":"U","NORAD_CAT_ID":59519,"ELEMENT_SET_NO":999,"REV_AT_EPOCH":10620,"BSTAR":-7.579484e-6,"MEAN_MOTION_DOT":-4.71e-6,"MEAN_MOTION_DDOT":0}]
